STARLINK-5386           
1 54834U 22177Q   24301.48128971  .00002307  00000+0  18578-3 0  9996
2 54834  43.0043 320.3031 0001283 274.6426  85.4269 15.02545815102022
STARLINK-5389           
1 54835U 22177R   24301.75164028  .00005954  00000+0  45530-3 0  9999
2 54835  43.0006 318.8917 0000959 279.1508  80.9226 15.02547818101079
STARLINK-5384           
1 54836U 22177S   24301.54443314  .00002520  00000+0  20155-3 0  9997
2 54836  43.0041 319.9165 0001106 268.4195  91.6521 15.02542318102038
STARLINK-5369           
1 54837U 22177T   24301.74498963  .00000784  00000+0  73136-4 0  9998
2 54837  43.0044 318.8385 0000540 270.6344  89.4436 15.02529711101071
STARLINK-5372           
1 54838U 22177U   24301.73720939  .00000633  00000+0  61883-4 0  9998
2 54838  43.0040 318.7838 0000956 269.8833  90.1900 15.02543194101070
STARLINK-5368           
1 54840U 22177W   24301.52889837 -.00000086  00000+0  87230-5 0  9999
2 54840  43.0040 319.7975 0000956 266.6046  93.4687 15.02537814102023
STARLINK-4659           
1 54841U 22177X   24301.54110724  .00003017  00000+0  23823-3 0  9996
2 54841  43.0035 319.8906 0001176 250.9412 109.1303 15.02546074102029
STARLINK-5387           
1 54842U 22177Y   24301.45573728 -.00013517  00000+0 -98547-3 0  9997
2 54842  43.0034 320.1087 0001512 260.6941  99.3730 15.02610195102012
STARLINK-5304           
1 54843U 22177Z   24301.73387576 -.00001326  00000+0 -83062-4 0  9995
2 54843  43.0022 318.7554 0001229 274.8955  85.1747 15.02548823101073
STARLINK-5388           
1 54844U 22177AA  24301.45131676  .00001658  00000+0  13777-3 0  9994
2 54844  43.0057 320.0526 0001325 265.6212  94.4479 15.02538347102018
STARLINK-5082           
1 54845U 22177AB  24301.45909200  .00006319  00000+0  48234-3 0  9996
2 54845  43.0051 320.1317 0000655 257.1987 102.8782 15.02544975102017
STARLINK-5360           
1 54846U 22177AC  24301.45243061  .00001184  00000+0  10270-3 0  9997
2 54846  43.0045 320.0848 0001220 260.0975  99.9730 15.02536452102018
STARLINK-5061           
1 54847U 22177AD  24301.67900800  .00001895  00000+0  15524-3 0  9999
2 54847  43.0049 293.1924 0001301 268.7905  91.2789 15.02548946101363
STARLINK-5432           
1 54848U 22177AE  24301.31984917  .00001757  00000+0  14510-3 0  9993
2 54848  43.0062 308.6585 0001797 271.5934  88.4703 15.02535778102136
STARLINK-5434           
1 54849U 22177AF  24301.51557001  .00003006  00000+0  23745-3 0  9995
2 54849  43.0031 319.6928 0001346 279.2130  80.8560 15.02544364102025
STARLINK-5087           
1 54850U 22177AG  24301.71428562  .00009669  00000+0  72935-3 0  9994
2 54850  42.9974 306.4565 0000557 266.6396  93.4382 15.02561390101219
STARLINK-5084           
1 54851U 22177AH  24301.71761394 -.00000041  00000+0  12043-4 0  9999
2 54851  43.0045 306.4802 0001253 246.6465 113.4245 15.02524959101215
