[{"OBJECT_NAME":"STARLINK-5386","OBJECT_ID":"2022-177Q","EPOCH":"2024-10-27T11:33:03.430944","MEAN_MOTION":15.02545815,"ECCENTRICITY":0.0001283,"INCLINATION":43.0043,"RA_OF_ASC_NODE":320.3031,"ARG_OF_PERICENTER":274.6426,"MEAN_ANOMALY":85.4269,"EPHEMERIS_TYPE":0,"CLASSIFICATION_TYPE":"U","NORAD_CAT_ID":54834,"ELEMENT_SET_NO":999,"REV_AT_EPOCH":10202,"BSTAR":0.00018578,"MEAN_MOTION_DOT":2.307e-5,"MEAN_MOTION_DDOT":0},{"OBJECT_NAME":"STARLINK-5389","OBJECT_ID":"2022-177R","EPOCH":"2024-10-27T18:02:21.720192","MEAN_MOTION":15.02547818,"ECCENTRICITY":9.59e-5,"INCLINATION":43.0006,"RA_OF_ASC_NODE":318.8917,"ARG_OF_PERICENTER":279.1508,"MEAN_ANOMALY":80.9226,"EPHEMERIS_TYPE":0,"CLASSIFICATION_TYPE":"U","NORAD_CAT_ID":54835,"ELEMENT_SET_NO":999,"REV_AT_EPOCH":10107,"BSTAR":0.0004553,"MEAN_MOTION_DOT":5.954e-5,"MEAN_MOTION_DDOT":0},{"OBJECT_NAME":"STARLINK-5384","OBJECT_ID":"2022-177S","EPOCH":"2024-10-27T13:03:59.023296","MEAN_MOTION":15.02542318,"ECCENTRICITY":0.0001106,"INCLINATION":43.0041,"RA_OF_ASC_NODE":319.9165,"ARG_OF_PERICENTER":268.4195,"MEAN_ANOMALY":91.6521,"EPHEMERIS_TYPE":0,"CLASSIFICATION_TYPE":"U","NORAD_CAT_ID":54836,"ELEMENT_SET_NO":999,"REV_AT_EPOCH":10203,"BSTAR":0.00020155,"MEAN_MOTION_DOT":2.52e-5,"MEAN_MOTION_DDOT":0},{"OBJECT_NAME":"STARLINK-5369","OBJECT_ID":"2022-177T","EPOCH":"2024-10-27T17:52:47.104032","MEAN_MOTION":15.02529711,"ECCENTRICITY":5.4e-5,"INCLINATION":43.0044,"RA_OF_ASC_NODE":318.8385,"ARG_OF_PERICENTER":270.6344,"MEAN_ANOMALY":89.4436,"EPHEMERIS_TYPE":0,"CLASSIFICATION_TYPE":"U","NORAD_CAT_ID":54837,"ELEMENT_SET_NO":999,"REV_AT_EPOCH":10107,"BSTAR":7.3136e-5,"MEAN_MOTION_DOT":7.84e-6,"MEAN_MOTION_DDOT":0},{"OBJECT_NAME":"STARLINK-5372","OBJECT_ID":"2022-177U","EPOCH":"2024-10-27T17:41:34.891296","MEAN_MOTION":15.02543194,"ECCENTRICITY":9.56e-5,"INCLINATION":43.004,"RA_OF_ASC_NODE":318.7838,"ARG_OF_PERICENTER":269.8833,"MEAN_ANOMALY":90.19,"EPHEMERIS_TYPE":0,"CLASSIFICATION_TYPE":"U","NORAD_CAT_ID":54838,"ELEMENT_SET_NO":999,"REV_AT_EPOCH":10107,"BSTAR":6.1883e-5,"MEAN_MOTION_DOT":6.33e-6,"MEAN_MOTION_DDOT":0},{"OBJECT_NAME":"STARLINK-5368","OBJECT_ID":"2022-177W","EPOCH":"2024-10-27T12:41:36.819168","MEAN_MOTION":15.02537814,"ECCENTRICITY":9.56e-5,"INCLINATION":43.004,"RA_OF_ASC_NODE":319.7975,"ARG_OF_PERICENTER":266.6046,"MEAN_ANOMALY":93.4687,"EPHEMERIS_TYPE":0,"CLASSIFICATION_TYPE":"U","NORAD_CAT_ID":54840,"ELEMENT_SET_NO":999,"REV_AT_EPOCH":10202,"BSTAR":8.723e-6,"MEAN_MOTION_DOT":-8.6e-7,"MEAN_MOTION_DDOT":0},{"OBJECT_NAME":"STARLINK-4659","OBJECT_ID":"2022-177X","EPOCH":"2024-10-27T12:59:11.665536","MEAN_MOTION":15.02546074,"ECCENTRICITY":0.0001176,"INCLINATION":43.0035,"RA_OF_ASC_NODE":319.8906,"ARG_OF_PERICENTER":250.9412,"MEAN_ANOMALY":109.1303,"EPHEMERIS_TYPE":0,"CLASSIFICATION_TYPE":"U","NORAD_CAT_ID":54841,"ELEMENT_SET_NO":999,"REV_AT_EPOCH":10202,"BSTAR":0.00023823,"MEAN_MOTION_DOT":3.017e-5,"MEAN_MOTION_DDOT":0},{"OBJECT_NAME":"STARLINK-5387","OBJECT_ID":"2022-177Y","EPOCH":"2024-10-27T10:56:15.700992","MEAN_MOTION":15.02610195,"ECCENTRICITY":0.0001512,"INCLINATION":43.0034,"RA_OF_ASC_NODE":320.1087,"ARG_OF_PERICENTER":260.6941,"MEAN_ANOMALY":99.373,"EPHEMERIS_TYPE":0,"CLASSIFICATION_TYPE":"U","NORAD_CAT_ID":54842,"ELEMENT_SET_NO":999,"REV_AT_EPOCH":10201,"BSTAR":-0.00098547,"MEAN_MOTION_DOT":-0.00013517,"MEAN_MOTION_DDOT":0},{"OBJECT_NAME":"STARLINK-5304","OBJECT_ID":"2022-177Z","EPOCH":"2024-10-27T17:36:46.865664","MEAN_MOTION":15.02548823,"ECCENTRICITY":0.0001229,"INCLINATION":43.0022,"RA_OF_ASC_NODE":318.7554,"ARG_OF_PERICENTER":274.8955,"MEAN_ANOMALY":85.1747,"EPHEMERIS_TYPE":0,"CLASSIFICATION_TYPE":"U","NORAD_CAT_ID":54843,"ELEMENT_SET_NO":999,"REV_AT_EPOCH":10107,"BSTAR":-8.3062e-5,"MEAN_MOTION_DOT":-1.326e-5,"MEAN_MOTION_DDOT":0},{"OBJECT_NAME":"STARLINK-5388","OBJECT_ID":"2022-177AA","EPOCH":"2024-10-27T10:49:53.768064","MEAN_MOTION":15.02538347,"ECCENTRICITY":0.0001325,"INCLINATION":43.0057,"RA_OF_ASC_NODE":320.0526,"ARG_OF_PERICENTER":265.6212,"MEAN_ANOMALY":94.4479,"EPHEMERIS_TYPE":0,"CLASSIFICATION_TYPE":"U","NORAD_CAT_ID":54844,"ELEMENT_SET_NO":999,"REV_AT_EPOCH":10201,"BSTAR":0.00013777,"MEAN_MOTION_DOT":1.658e-5,"MEAN_MOTION_DDOT":0},{"OBJECT_NAME":"STARLINK-5082","OBJECT_ID":"2022-177AB","EPOCH":"2024-10-27T11:01:05.548800","MEAN_MOTION":15.02544975,"ECCENTRICITY":6.55e-5,"INCLINATION":43.0051,"RA_OF_ASC_NODE":320.1317,"ARG_OF_PERICENTER":257.1987,"MEAN_ANOMALY":102.8782,"EPHEMERIS_TYPE":0,"CLASSIFICATION_TYPE":"U","NORAD_CAT_ID":54845,"ELEMENT_SET_NO":999,"REV_AT_EPOCH":10201,"BSTAR":0.00048234,"MEAN_MOTION_DOT":6.319e-5,"MEAN_MOTION_DDOT":0},{"OBJECT_NAME":"STARLINK-5360","OBJECT_ID":"2022-177AC","EPOCH":"2024-10-27T10:51:30.004704","MEAN_MOTION":15.02536452,"ECCENTRICITY":0.000122,"INCLINATION":43.0045,"RA_OF_ASC_NODE":320.0848,"ARG_OF_PERICENTER":260.0975,"MEAN_ANOMALY":99.973,"EPHEMERIS_TYPE":0,"CLASSIFICATION_TYPE":"U","NORAD_CAT_ID":54846,"ELEMENT_SET_NO":999,"REV_AT_EPOCH":10201,"BSTAR":0.0001027,"MEAN_MOTION_DOT":1.184e-5,"MEAN_MOTION_DDOT":0},{"OBJECT_NAME":"STARLINK-5061","OBJECT_ID":"2022-177AD","EPOCH":"2024-10-27T16:17:46.291200","MEAN_MOTION":15.02548946,"ECCENTRICITY":0.0001301,"INCLINATION":43.0049,"RA_OF_ASC_NODE":293.1924,"ARG_OF_PERICENTER":268.7905,"MEAN_ANOMALY":91.2789,"EPHEMERIS_TYPE":0,"CLASSIFICATION_TYPE":"U","NORAD_CAT_ID":54847,"ELEMENT_SET_NO":999,"REV_AT_EPOCH":10136,"BSTAR":0.00015524,"MEAN_MOTION_DOT":1.895e-5,"MEAN_MOTION_DDOT":0},{"OBJECT_NAME":"STARLINK-5432","OBJECT_ID":"2022-177AE","EPOCH":"2024-10-27T07:40:34.968288","MEAN_MOTION":15.02535778,"ECCENTRICITY":0.0001797,"INCLINATION":43.0062,"RA_OF_ASC_NODE":308.6585,"ARG_OF_PERICENTER":271.5934,"MEAN_ANOMALY":88.4703,"EPHEMERIS_TYPE":0,"CLASSIFICATION_TYPE":"U","NORAD_CAT_ID":54848,"ELEMENT_SET_NO":999,"REV_AT_EPOCH":10213,"BSTAR":0.0001451,"MEAN_MOTION_DOT":1.757e-5,"MEAN_MOTION_DDOT":0},{"OBJECT_NAME":"STARLINK-5434","OBJECT_ID":"2022-177AF","EPOCH":"2024-10-27T12:22:25.248864","MEAN_MOTION":15.02544364,"ECCENTRICITY":0.0001346,"INCLINATION":43.0031,"RA_OF_ASC_NODE":319.6928,"ARG_OF_PERICENTER":279.213,"MEAN_ANOMALY":80.856,"EPHEMERIS_TYPE":0,"CLASSIFICATION_TYPE":"U","NORAD_CAT_ID":54849,"ELEMENT_SET_NO":999,"REV_AT_EPOCH":10202,"BSTAR":0.00023745,"MEAN_MOTION_DOT":3.006e-5,"MEAN_MOTION_DDOT":0},{"OBJECT_NAME":"STARLINK-5087","OBJECT_ID":"2022-177AG","EPOCH":"2024-10-27T17:08:34.277568","MEAN_MOTION":15.0256139,"ECCENTRICITY":5.57e-5,"INCLINATION":42.9974,"RA_OF_ASC_NODE":306.4565,"ARG_OF_PERICENTER":266.6396,"MEAN_ANOMALY":93.4382,"EPHEMERIS_TYPE":0,"CLASSIFICATION_TYPE":"U","NORAD_CAT_ID":54850,"ELEMENT_SET_NO":999,"REV_AT_EPOCH":10121,"BSTAR":0.00072935,"MEAN_MOTION_DOT":9.669e-5,"MEAN_MOTION_DDOT":0},{"OBJECT_NAME":"STARLINK-5084","OBJECT_ID":"2022-177AH","EPOCH":"2024-10-27T17:13:21.844416","MEAN_MOTION":15.02524959,"ECCENTRICITY":0.0001253,"INCLINATION":43.0045,"RA_OF_ASC_NODE":306.4802,"ARG_OF_PERICENTER":246.6465,"MEAN_ANOMALY":113.4245,"EPHEMERIS_TYPE":0,"CLASSIFICATION_TYPE":"U","NORAD_CAT_ID":54851,"ELEMENT_SET_NO":999,"REV_AT_EPOCH":10121,"BSTAR":1.2043e-5,"MEAN_MOTION_DOT":-4.1e-7,"MEAN_MOTION_DDOT":0}]